0 FENGYUN 1C DEB
1 35156U 99025DML 13281.86789104  .00000265  00000-0  18500-3 0  2828
2 35156 099.0326 311.9597 0039619 077.3798 283.1717 14.06656583300405
0 FENGYUN 1C DEB
1 35156U 99025DML 13284.28629935  .00000269  00000-0  18735-3 0  2837
2 35156 099.0322 314.3722 0039593 070.7205 289.8264 14.06658257300746
0 FENGYUN 1C DEB
1 35156U 99025DML 13287.27373666  .00000278  00000-0  19284-3 0  2847
2 35156 099.0311 317.3497 0039330 061.7826 298.7359 14.06660535301167
0 FENGYUN 1C DEB
1 35156U 99025DML 13290.33229595  .00000294  00000-0  20295-3 0  2852
2 35156 099.0312 320.4030 0039053 052.6668 307.8207 14.06663214301599
0 FENGYUN 1C DEB
1 35156U 99025DML 13292.89294394  .00000317  00000-0  21612-3 0  2865
2 35156 099.0305 322.9562 0039475 046.2809 314.1836 14.06665725301950
0 FENGYUN 1C DEB
1 35156U 99025DML 13295.31132680  .00000342  00000-0  23131-3 0  2871
2 35156 099.0297 325.3693 0039359 040.3908 320.0334 14.06668150302290
